{
  "type": "FeatureCollection",
  "features": [
    {
      "type": "Feature",
      "properties": {
        "norad_id": 31074,
        "name": "FENGYUN 1C DEB",
        "group": "fengyun-1c-debris",
        "lat": 16.57249415493655,
        "lon": -104.4662914109319,
        "alt_km": 857.4805149961512,
        "timestamp": "2025-12-09T05:43:21.006404+00:00",
        "meta_object_name": "FENGYUN 1C DEB",
        "meta_object_id": "1999-025BFU",
        "meta_epoch": "2025-12-08T05:52:14.706624",
        "meta_mean_motion": 14.14172356,
        "meta_eccentricity": 0.00887016,
        "meta_inclination": 98.9582,
        "meta_ra_of_asc_node": 257.228,
        "meta_arg_of_pericenter": 278.5236,
        "meta_mean_anomaly": 80.5892,
        "meta_ephemeris_type": 0,
        "meta_classification_type": "U",
        "meta_norad_cat_id": 31074,
        "meta_element_set_no": 999,
        "meta_rev_at_epoch": 95516,
        "meta_bstar": 0.0032893959,
        "meta_mean_motion_dot": 6.469e-05,
        "meta_mean_motion_ddot": 0,
        "tle_line1": "1 31074U 99025BFU 25342.24461466  .00006469  00000+0  32894-2 0  9991",
        "tle_line2": "2 31074  98.9582 257.2280 0088701 278.5236  80.5892 14.14172356955163"
      },
      "geometry": {
        "type": "Point",
        "coordinates": [
          -104.4662914109319,
          16.57249415493655
        ]
      }
    },
    {
      "type": "Feature",
      "properties": {
        "norad_id": 31078,
        "name": "FENGYUN 1C DEB",
        "group": "fengyun-1c-debris",
        "lat": -68.1840252063953,
        "lon": -159.30226912312335,
        "alt_km": 826.2196226813367,
        "timestamp": "2025-12-09T05:43:21.006415+00:00",
        "meta_object_name": "FENGYUN 1C DEB",
        "meta_object_id": "1999-025BFY",
        "meta_epoch": "2025-12-05T09:39:35.353728",
        "meta_mean_motion": 14.22045821,
        "meta_eccentricity": 0.01168752,
        "meta_inclination": 98.8694,
        "meta_ra_of_asc_node": 39.8,
        "meta_arg_of_pericenter": 169.8882,
        "meta_mean_anomaly": 252.0219,
        "meta_ephemeris_type": 0,
        "meta_classification_type": "U",
        "meta_norad_cat_id": 31078,
        "meta_element_set_no": 999,
        "meta_rev_at_epoch": 96788,
        "meta_bstar": 0.0010409368,
        "meta_mean_motion_dot": 2.424e-05,
        "meta_mean_motion_ddot": 0,
        "tle_line1": "1 31078U 99025BFY 25339.40249252  .00002424  00000+0  10409-2 0  9991",
        "tle_line2": "2 31078  98.8694  39.8000 0116875 169.8882 252.0219 14.22045821967883"
      },
      "geometry": {
        "type": "Point",
        "coordinates": [
          -159.30226912312335,
          -68.1840252063953
        ]
      }
    },
    {
      "type": "Feature",
      "properties": {
        "norad_id": 31081,
        "name": "FENGYUN 1C DEB",
        "group": "fengyun-1c-debris",
        "lat": -41.199516715318886,
        "lon": 172.01580655659214,
        "alt_km": 846.1970793750324,
        "timestamp": "2025-12-09T05:43:21.006425+00:00",
        "meta_object_name": "FENGYUN 1C DEB",
        "meta_object_id": "1999-025BGB",
        "meta_epoch": "2025-12-08T19:16:19.714944",
        "meta_mean_motion": 14.06296788,
        "meta_eccentricity": 0.0047293,
        "meta_inclination": 98.7706,
        "meta_ra_of_asc_node": 359.3611,
        "meta_arg_of_pericenter": 242.2472,
        "meta_mean_anomaly": 296.4126,
        "meta_ephemeris_type": 0,
        "meta_classification_type": "U",
        "meta_norad_cat_id": 31081,
        "meta_element_set_no": 999,
        "meta_rev_at_epoch": 96405,
        "meta_bstar": 0.00022416,
        "meta_mean_motion_dot": 3.3e-06,
        "meta_mean_motion_ddot": 0,
        "tle_line1": "1 31081U 99025BGB 25342.80300596  .00000330  00000+0  22416-3 0  9998",
        "tle_line2": "2 31081  98.7706 359.3611 0047293 242.2472 296.4126 14.06296788964053"
      },
      "geometry": {
        "type": "Point",
        "coordinates": [
          172.01580655659214,
          -41.199516715318886
        ]
      }
    },
    {
      "type": "Feature",
      "properties": {
        "norad_id": 31083,
        "name": "FENGYUN 1C DEB",
        "group": "fengyun-1c-debris",
        "lat": -67.20285543465329,
        "lon": 121.74848450537993,
        "alt_km": 674.4701453578446,
        "timestamp": "2025-12-09T05:43:21.006436+00:00",
        "meta_object_name": "FENGYUN 1C DEB",
        "meta_object_id": "1999-025BGD",
        "meta_epoch": "2025-12-08T19:14:09.319200",
        "meta_mean_motion": 14.61865095,
        "meta_eccentricity": 0.0031039,
        "meta_inclination": 98.6465,
        "meta_ra_of_asc_node": 100.0661,
        "meta_arg_of_pericenter": 317.7758,
        "meta_mean_anomaly": 195.4354,
        "meta_ephemeris_type": 0,
        "meta_classification_type": "U",
        "meta_norad_cat_id": 31083,
        "meta_element_set_no": 999,
        "meta_rev_at_epoch": 97652,
        "meta_bstar": 0.0043923,
        "meta_mean_motion_dot": 0.00022122,
        "meta_mean_motion_ddot": 0,
        "tle_line1": "1 31083U 99025BGD 25342.80149675  .00022122  00000+0  43923-2 0  9997",
        "tle_line2": "2 31083  98.6465 100.0661 0031039 317.7758 195.4354 14.61865095976528"
      },
      "geometry": {
        "type": "Point",
        "coordinates": [
          121.74848450537993,
          -67.20285543465329
        ]
      }
    },
    {
      "type": "Feature",
      "properties": {
        "norad_id": 31085,
        "name": "FENGYUN 1C DEB",
        "group": "fengyun-1c-debris",
        "lat": 80.01884355294962,
        "lon": 67.93611594794389,
        "alt_km": 757.4596767418234,
        "timestamp": "2025-12-09T05:43:21.006446+00:00",
        "meta_object_name": "FENGYUN 1C DEB",
        "meta_object_id": "1999-025BGF",
        "meta_epoch": "2025-12-08T19:30:55.256256",
        "meta_mean_motion": 14.30306251,
        "meta_eccentricity": 0.0087488,
        "meta_inclination": 98.9846,
        "meta_ra_of_asc_node": 183.472,
        "meta_arg_of_pericenter": 29.4311,
        "meta_mean_anomaly": 35.3324,
        "meta_ephemeris_type": 0,
        "meta_classification_type": "U",
        "meta_norad_cat_id": 31085,
        "meta_element_set_no": 999,
        "meta_rev_at_epoch": 97660,
        "meta_bstar": 0.00018881,
        "meta_mean_motion_dot": 4.64e-06,
        "meta_mean_motion_ddot": 0,
        "tle_line1": "1 31085U 99025BGF 25342.81313954  .00000464  00000+0  18881-3 0  9994",
        "tle_line2": "2 31085  98.9846 183.4720 0087488  29.4311  35.3324 14.30306251976606"
      },
      "geometry": {
        "type": "Point",
        "coordinates": [
          67.93611594794389,
          80.01884355294962
        ]
      }
    },
    {
      "type": "Feature",
      "properties": {
        "norad_id": 31087,
        "name": "FENGYUN 1C DEB",
        "group": "fengyun-1c-debris",
        "lat": -31.116640207055923,
        "lon": 178.7912098713616,
        "alt_km": 697.6195376514152,
        "timestamp": "2025-12-09T05:43:21.006457+00:00",
        "meta_object_name": "FENGYUN 1C DEB",
        "meta_object_id": "1999-025BGH",
        "meta_epoch": "2025-12-08T19:42:40.218048",
        "meta_mean_motion": 14.60247941,
        "meta_eccentricity": 0.0172032,
        "meta_inclination": 98.1024,
        "meta_ra_of_asc_node": 3.3163,
        "meta_arg_of_pericenter": 303.2912,
        "meta_mean_anomaly": 238.4856,
        "meta_ephemeris_type": 0,
        "meta_classification_type": "U",
        "meta_norad_cat_id": 31087,
        "meta_element_set_no": 999,
        "meta_rev_at_epoch": 98712,
        "meta_bstar": 0.0012954,
        "meta_mean_motion_dot": 7.65e-05,
        "meta_mean_motion_ddot": 0,
        "tle_line1": "1 31087U 99025BGH 25342.82129882  .00007650  00000+0  12954-2 0  9990",
        "tle_line2": "2 31087  98.1024   3.3163 0172032 303.2912 238.4856 14.60247941987127"
      },
      "geometry": {
        "type": "Point",
        "coordinates": [
          178.7912098713616,
          -31.116640207055923
        ]
      }
    },
    {
      "type": "Feature",
      "properties": {
        "norad_id": 31088,
        "name": "FENGYUN 1C DEB",
        "group": "fengyun-1c-debris",
        "lat": 24.401623718862577,
        "lon": -132.5377001159821,
        "alt_km": 793.0044925240127,
        "timestamp": "2025-12-09T05:43:21.006468+00:00",
        "meta_object_name": "FENGYUN 1C DEB",
        "meta_object_id": "1999-025BGJ",
        "meta_epoch": "2025-12-06T03:10:53.544288",
        "meta_mean_motion": 14.28618697,
        "meta_eccentricity": 0.00290139,
        "meta_inclination": 99.4119,
        "meta_ra_of_asc_node": 39.7992,
        "meta_arg_of_pericenter": 80.7204,
        "meta_mean_anomaly": 309.1309,
        "meta_ephemeris_type": 0,
        "meta_classification_type": "U",
        "meta_norad_cat_id": 31088,
        "meta_element_set_no": 999,
        "meta_rev_at_epoch": 96455,
        "meta_bstar": 0.00281036,
        "meta_mean_motion_dot": 7.045e-05,
        "meta_mean_motion_ddot": 0,
        "tle_line1": "1 31088U 99025BGJ 25340.13256417  .00007045  00000+0  28104-2 0  9990",
        "tle_line2": "2 31088  99.4119  39.7992 0029013  80.7204 309.1309 14.28618697964556"
      },
      "geometry": {
        "type": "Point",
        "coordinates": [
          -132.5377001159821,
          24.401623718862577
        ]
      }
    }
  ]
}